SL-4 R/B                
1 39679U 14021B   25365.21245660  .00017159  00000+0  40084-3 0  9990
2 39679  51.6083 310.7904 0100338 212.9799 146.4899 15.37138051645737
ALOS-2                  
1 39766U 14029A   25365.95077149  .00003504  00000+0  47598-3 0  9997
2 39766  97.9218 100.5229 0001300 102.6592 257.4765 14.79461774626850
YAOGAN-29               
1 41038U 15069A   25365.98302470  .00001020  00000+0  13252-3 0  9999
2 41038  98.0212  29.2155 0001408 149.8973 210.2322 14.82907903545849
ASTRO-H (HITOMI)        
1 41337U 16012A   25365.60292556  .00005867  00000+0  35123-3 0  9996
2 41337  31.0003  75.7520 0009585   8.1208 351.9584 15.09495126541938
HXMT (HUIYAN)           
1 42758U 17034A   25365.95931993  .00009649  00000+0  49147-3 0  9995
2 42758  43.0156  32.9577 0032024 168.8904 191.2657 15.16503008472257
CZ-2C R/B               
1 43521U 18054D   25365.41958529  .00162392  00000+0  87788-3 0  9990
2 43521  35.1335  53.8398 0013157 328.9833  31.0123 15.78518324418003
SAOCOM 1A               
1 43641U 18076A   25365.43986047 -.00000404  00000+0 -44157-4 0  9996
2 43641  97.8848 189.5891 0001384  83.2840 276.8530 14.82154801391251
H-2A R/B                
1 43682U 18084L   25365.56331734  .00030937  00000+0  81426-3 0  9992
2 43682  98.8766 203.5549 0026131 260.2971  99.5318 15.38161632395296
SAOCOM 1B               
1 46265U 20059A   25365.94367172  .00001552  00000+0  20147-3 0  9998
2 46265  97.8843 189.1855 0001456  84.6602 275.4777 14.82164106288711
CSS (TIANHE)            
1 48274U 21035A   25365.92570682  .00024817  00000+0  30104-3 0  9998
2 48274  41.4667 260.1626 0009936 193.3044 166.7534 15.59983725267022
COSMOS 2550             
1 48865U 21056A   25365.50582977 -.00000169  00000+0  69865-6 0  9995
2 48865  67.1441 247.1723 0008331 269.3764  90.6436 15.33836624253003
CZ-2C R/B               
1 52794U 22058K   25365.25710800  .00043119  00000+0  74007-3 0  9996
2 52794  50.1923 309.0475 0044127 274.4376  85.1552 15.49588426199500
