CCSDS_OMM_VERS = 2.0
CREATION_DATE  = 
ORIGINATOR     = 

OBJECT_NAME    = SL-4 R/B
OBJECT_ID      = 2014-021B
CENTER_NAME    = EARTH
REF_FRAME      = TEME
TIME_SYSTEM    = UTC
MEAN_ELEMENT_THEORY = SGP/SGP4

EPOCH          = 2025-12-31T05:05:56.250240
MEAN_MOTION    = 15.37138051
ECCENTRICITY   = .0100338
INCLINATION    = 51.6083
RA_OF_ASC_NODE = 310.7904
ARG_OF_PERICENTER = 212.9799
MEAN_ANOMALY   = 146.4899

EPHEMERIS_TYPE = 0
CLASSIFICATION_TYPE = U
NORAD_CAT_ID   = 39679
ELEMENT_SET_NO = 999
REV_AT_EPOCH   = 64573
BSTAR          = .40084E-3
MEAN_MOTION_DOT = .17159E-3
MEAN_MOTION_DDOT = 0

CCSDS_OMM_VERS = 2.0
CREATION_DATE  = 
ORIGINATOR     = 

OBJECT_NAME    = ALOS-2
OBJECT_ID      = 2014-029A
CENTER_NAME    = EARTH
REF_FRAME      = TEME
TIME_SYSTEM    = UTC
MEAN_ELEMENT_THEORY = SGP/SGP4

EPOCH          = 2025-12-31T22:49:06.656736
MEAN_MOTION    = 14.79461774
ECCENTRICITY   = .00013009
INCLINATION    = 97.9218
RA_OF_ASC_NODE = 100.5229
ARG_OF_PERICENTER = 102.6592
MEAN_ANOMALY   = 257.4765

EPHEMERIS_TYPE = 0
CLASSIFICATION_TYPE = U
NORAD_CAT_ID   = 39766
ELEMENT_SET_NO = 999
REV_AT_EPOCH   = 62685
BSTAR          = .47597612E-3
MEAN_MOTION_DOT = .3504E-4
MEAN_MOTION_DDOT = 0

CCSDS_OMM_VERS = 2.0
CREATION_DATE  = 
ORIGINATOR     = 

OBJECT_NAME    = YAOGAN-29
OBJECT_ID      = 2015-069A
CENTER_NAME    = EARTH
REF_FRAME      = TEME
TIME_SYSTEM    = UTC
MEAN_ELEMENT_THEORY = SGP/SGP4

EPOCH          = 2025-12-31T23:35:33.334080
MEAN_MOTION    = 14.82907903
ECCENTRICITY   = .00014085
INCLINATION    = 98.0212
RA_OF_ASC_NODE = 29.2155
ARG_OF_PERICENTER = 149.8973
MEAN_ANOMALY   = 210.2322

EPHEMERIS_TYPE = 0
CLASSIFICATION_TYPE = U
NORAD_CAT_ID   = 41038
ELEMENT_SET_NO = 999
REV_AT_EPOCH   = 54584
BSTAR          = .13252199E-3
MEAN_MOTION_DOT = .102E-4
MEAN_MOTION_DDOT = 0

CCSDS_OMM_VERS = 2.0
CREATION_DATE  = 
ORIGINATOR     = 

OBJECT_NAME    = ASTRO-H (HITOMI)
OBJECT_ID      = 2016-012A
CENTER_NAME    = EARTH
REF_FRAME      = TEME
TIME_SYSTEM    = UTC
MEAN_ELEMENT_THEORY = SGP/SGP4

EPOCH          = 2025-12-31T14:28:12.768384
MEAN_MOTION    = 15.09495126
ECCENTRICITY   = .00095857
INCLINATION    = 31.0003
RA_OF_ASC_NODE = 75.7520
ARG_OF_PERICENTER = 8.1208
MEAN_ANOMALY   = 351.9584

EPHEMERIS_TYPE = 0
CLASSIFICATION_TYPE = U
NORAD_CAT_ID   = 41337
ELEMENT_SET_NO = 999
REV_AT_EPOCH   = 54193
BSTAR          = .35123094E-3
MEAN_MOTION_DOT = .5867E-4
MEAN_MOTION_DDOT = 0

CCSDS_OMM_VERS = 2.0
CREATION_DATE  = 
ORIGINATOR     = 

OBJECT_NAME    = HXMT (HUIYAN)
OBJECT_ID      = 2017-034A
CENTER_NAME    = EARTH
REF_FRAME      = TEME
TIME_SYSTEM    = UTC
MEAN_ELEMENT_THEORY = SGP/SGP4

EPOCH          = 2025-12-31T23:01:25.241952
MEAN_MOTION    = 15.16503008
ECCENTRICITY   = .00320249
INCLINATION    = 43.0156
RA_OF_ASC_NODE = 32.9577
ARG_OF_PERICENTER = 168.8904
MEAN_ANOMALY   = 191.2657

EPHEMERIS_TYPE = 0
CLASSIFICATION_TYPE = U
NORAD_CAT_ID   = 42758
ELEMENT_SET_NO = 999
REV_AT_EPOCH   = 47225
BSTAR          = .49147116E-3
MEAN_MOTION_DOT = .9649E-4
MEAN_MOTION_DDOT = 0

CCSDS_OMM_VERS = 2.0
CREATION_DATE  = 
ORIGINATOR     = 

OBJECT_NAME    = CZ-2C R/B
OBJECT_ID      = 2018-054D
CENTER_NAME    = EARTH
REF_FRAME      = TEME
TIME_SYSTEM    = UTC
MEAN_ELEMENT_THEORY = SGP/SGP4

EPOCH          = 2025-12-31T10:04:12.169056
MEAN_MOTION    = 15.78518324
ECCENTRICITY   = .00131575
INCLINATION    = 35.1335
RA_OF_ASC_NODE = 53.8398
ARG_OF_PERICENTER = 328.9833
MEAN_ANOMALY   = 31.0123

EPHEMERIS_TYPE = 0
CLASSIFICATION_TYPE = U
NORAD_CAT_ID   = 43521
ELEMENT_SET_NO = 999
REV_AT_EPOCH   = 41800
BSTAR          = .87787704E-3
MEAN_MOTION_DOT = .162392E-2
MEAN_MOTION_DDOT = 0

CCSDS_OMM_VERS = 2.0
CREATION_DATE  = 
ORIGINATOR     = 

OBJECT_NAME    = SAOCOM 1A
OBJECT_ID      = 2018-076A
CENTER_NAME    = EARTH
REF_FRAME      = TEME
TIME_SYSTEM    = UTC
MEAN_ELEMENT_THEORY = SGP/SGP4

EPOCH          = 2025-12-31T10:33:23.944608
MEAN_MOTION    = 14.82154801
ECCENTRICITY   = .00013845
INCLINATION    = 97.8848
RA_OF_ASC_NODE = 189.5891
ARG_OF_PERICENTER = 83.2840
MEAN_ANOMALY   = 276.8530

EPHEMERIS_TYPE = 0
CLASSIFICATION_TYPE = U
NORAD_CAT_ID   = 43641
ELEMENT_SET_NO = 999
REV_AT_EPOCH   = 39125
BSTAR          = -.4415733E-4
MEAN_MOTION_DOT = -.404E-5
MEAN_MOTION_DDOT = 0

CCSDS_OMM_VERS = 2.0
CREATION_DATE  = 
ORIGINATOR     = 

OBJECT_NAME    = H-2A R/B
OBJECT_ID      = 2018-084L
CENTER_NAME    = EARTH
REF_FRAME      = TEME
TIME_SYSTEM    = UTC
MEAN_ELEMENT_THEORY = SGP/SGP4

EPOCH          = 2025-12-31T13:31:10.618176
MEAN_MOTION    = 15.38161632
ECCENTRICITY   = .00261316
INCLINATION    = 98.8766
RA_OF_ASC_NODE = 203.5549
ARG_OF_PERICENTER = 260.2971
MEAN_ANOMALY   = 99.5318

EPHEMERIS_TYPE = 0
CLASSIFICATION_TYPE = U
NORAD_CAT_ID   = 43682
ELEMENT_SET_NO = 999
REV_AT_EPOCH   = 39529
BSTAR          = .814258E-3
MEAN_MOTION_DOT = .30937E-3
MEAN_MOTION_DDOT = 0

CCSDS_OMM_VERS = 2.0
CREATION_DATE  = 
ORIGINATOR     = 

OBJECT_NAME    = SAOCOM 1B
OBJECT_ID      = 2020-059A
CENTER_NAME    = EARTH
REF_FRAME      = TEME
TIME_SYSTEM    = UTC
MEAN_ELEMENT_THEORY = SGP/SGP4

EPOCH          = 2025-12-31T22:38:53.236608
MEAN_MOTION    = 14.82164106
ECCENTRICITY   = .00014566
INCLINATION    = 97.8843
RA_OF_ASC_NODE = 189.1855
ARG_OF_PERICENTER = 84.6602
MEAN_ANOMALY   = 275.4777

EPHEMERIS_TYPE = 0
CLASSIFICATION_TYPE = U
NORAD_CAT_ID   = 46265
ELEMENT_SET_NO = 999
REV_AT_EPOCH   = 28871
BSTAR          = .20147286E-3
MEAN_MOTION_DOT = .1552E-4
MEAN_MOTION_DDOT = 0

CCSDS_OMM_VERS = 2.0
CREATION_DATE  = 
ORIGINATOR     = 

OBJECT_NAME    = CSS (TIANHE)
OBJECT_ID      = 2021-035A
CENTER_NAME    = EARTH
REF_FRAME      = TEME
TIME_SYSTEM    = UTC
MEAN_ELEMENT_THEORY = SGP/SGP4

EPOCH          = 2025-12-31T22:13:01.069248
MEAN_MOTION    = 15.59983725
ECCENTRICITY   = .00099362
INCLINATION    = 41.4667
RA_OF_ASC_NODE = 260.1626
ARG_OF_PERICENTER = 193.3044
MEAN_ANOMALY   = 166.7534

EPHEMERIS_TYPE = 0
CLASSIFICATION_TYPE = U
NORAD_CAT_ID   = 48274
ELEMENT_SET_NO = 999
REV_AT_EPOCH   = 26702
BSTAR          = .30103624E-3
MEAN_MOTION_DOT = .24817E-3
MEAN_MOTION_DDOT = 0

CCSDS_OMM_VERS = 2.0
CREATION_DATE  = 
ORIGINATOR     = 

OBJECT_NAME    = COSMOS 2550
OBJECT_ID      = 2021-056A
CENTER_NAME    = EARTH
REF_FRAME      = TEME
TIME_SYSTEM    = UTC
MEAN_ELEMENT_THEORY = SGP/SGP4

EPOCH          = 2025-12-31T12:08:23.692128
MEAN_MOTION    = 15.33836624
ECCENTRICITY   = .00083314
INCLINATION    = 67.1441
RA_OF_ASC_NODE = 247.1723
ARG_OF_PERICENTER = 269.3764
MEAN_ANOMALY   = 90.6436

EPHEMERIS_TYPE = 0
CLASSIFICATION_TYPE = U
NORAD_CAT_ID   = 48865
ELEMENT_SET_NO = 999
REV_AT_EPOCH   = 25300
BSTAR          = .698646E-6
MEAN_MOTION_DOT = -.169E-5
MEAN_MOTION_DDOT = 0

CCSDS_OMM_VERS = 2.0
CREATION_DATE  = 
ORIGINATOR     = 

OBJECT_NAME    = CZ-2C R/B
OBJECT_ID      = 2022-058K
CENTER_NAME    = EARTH
REF_FRAME      = TEME
TIME_SYSTEM    = UTC
MEAN_ELEMENT_THEORY = SGP/SGP4

EPOCH          = 2025-12-31T06:10:14.131200
MEAN_MOTION    = 15.49588426
ECCENTRICITY   = .00441275
INCLINATION    = 50.1923
RA_OF_ASC_NODE = 309.0475
ARG_OF_PERICENTER = 274.4376
MEAN_ANOMALY   = 85.1552

EPHEMERIS_TYPE = 0
CLASSIFICATION_TYPE = U
NORAD_CAT_ID   = 52794
ELEMENT_SET_NO = 999
REV_AT_EPOCH   = 19950
BSTAR          = .7400696E-3
MEAN_MOTION_DOT = .43119E-3
MEAN_MOTION_DDOT = 0

